[
    {
        "Altitude(m)": 714618.273731292,
        "Argument of Periapsis(deg)": 0.006834072711976239,
        "Eccentricity": 0.0,
        "Inclination(deg)": 45.0,
        "Latitude(deg)": -37.26548435222929,
        "Longitude(deg)": 125.36817456437038,
        "Mean Anomaly(deg)": -58.534570011511526,
        "RAAN(deg)": 274.99354883512507,
        "Satellite Name": "Constellation 1 1228",
        "Satellite Number": 1228,
        "Semi-Major Axis(m)": 7083131.272910544,
        "Time(s)": 114
    },
    {
        "Altitude(m)": 714606.7206145393,
        "Argument of Periapsis(deg)": 0.006894020718221645,
        "Eccentricity": 0.0,
        "Inclination(deg)": 45.0,
        "Latitude(deg)": -37.23738068180792,
        "Longitude(deg)": 125.4313855469909,
        "Mean Anomaly(deg)": -58.473868871261615,
        "RAAN(deg)": 274.9934922459595,
        "Satellite Name": "Constellation 1 1228",
        "Satellite Number": 1228,
        "Semi-Major Axis(m)": 7083131.272910544,
        "Time(s)": 115
    },
    {
        "Altitude(m)": 714595.1530664427,
        "Argument of Periapsis(deg)": 0.006953968724467052,
        "Eccentricity": 0.0,
        "Inclination(deg)": 45.0,
        "Latitude(deg)": -37.20923860197598,
        "Longitude(deg)": 125.49454667815544,
        "Mean Anomaly(deg)": -58.41316773101167,
        "RAAN(deg)": 274.99343565679396,
        "Satellite Name": "Constellation 1 1228",
        "Satellite Number": 1228,
        "Semi-Major Axis(m)": 7083131.272910544,
        "Time(s)": 116
    },
    {
        "Altitude(m)": 714583.5711288437,
        "Argument of Periapsis(deg)": 0.007013916730712457,
        "Eccentricity": 0.0,
        "Inclination(deg)": 45.0,
        "Latitude(deg)": -37.18105817917346,
        "Longitude(deg)": 125.55765797795169,
        "Mean Anomaly(deg)": -58.35246659076171,
        "RAAN(deg)": 274.9933790676283,
        "Satellite Name": "Constellation 1 1228",
        "Satellite Number": 1228,
        "Semi-Major Axis(m)": 7083131.272910544,
        "Time(s)": 117
    },
    {
        "Altitude(m)": 714571.9748436074,
        "Argument of Periapsis(deg)": 0.007073864736957864,
        "Eccentricity": 0.0,
        "Inclination(deg)": 45.0,
        "Latitude(deg)": -37.15283947979642,
        "Longitude(deg)": 125.62071946676488,
        "Mean Anomaly(deg)": -58.291765450511974,
        "RAAN(deg)": 274.9933224784628,
        "Satellite Name": "Constellation 1 1228",
        "Satellite Number": 1228,
        "Semi-Major Axis(m)": 7083131.272910544,
        "Time(s)": 118
    },
    {
        "Altitude(m)": 714560.3642526723,
        "Argument of Periapsis(deg)": 0.0071338127432032696,
        "Eccentricity": 0.0,
        "Inclination(deg)": 45.0,
        "Latitude(deg)": -37.124582570196345,
        "Longitude(deg)": 125.68373099718039,
        "Mean Anomaly(deg)": -58.23106431026201,
        "RAAN(deg)": 274.9932658892972,
        "Satellite Name": "Constellation 1 1228",
        "Satellite Number": 1228,
        "Semi-Major Axis(m)": 7083131.272910544,
        "Time(s)": 119
    },
    {
        "Altitude(m)": 714548.7393980124,
        "Argument of Periapsis(deg)": 0.007193760749448674,
        "Eccentricity": 0.0,
        "Inclination(deg)": 45.0,
        "Latitude(deg)": -37.09628751668082,
        "Longitude(deg)": 125.7466929263683,
        "Mean Anomaly(deg)": -58.170363170012,
        "RAAN(deg)": 274.99320930013164,
        "Satellite Name": "Constellation 1 1228",
        "Satellite Number": 1228,
        "Semi-Major Axis(m)": 7083131.272910544,
        "Time(s)": 120
    },
    {
        "Altitude(m)": 714537.1003216462,
        "Argument of Periapsis(deg)": 0.007253708755694079,
        "Eccentricity": 0.0,
        "Inclination(deg)": 45.0,
        "Latitude(deg)": -37.067954385512174,
        "Longitude(deg)": 125.80960510750168,
        "Mean Anomaly(deg)": -58.10966202976227,
        "RAAN(deg)": 274.9931527109661,
        "Satellite Name": "Constellation 1 1228",
        "Satellite Number": 1228,
        "Semi-Major Axis(m)": 7083131.272910544,
        "Time(s)": 121
    },
    {
        "Altitude(m)": 714525.4470656471,
        "Argument of Periapsis(deg)": 0.0073136567619394854,
        "Eccentricity": 0.0,
        "Inclination(deg)": 45.0,
        "Latitude(deg)": -37.039583242907334,
        "Longitude(deg)": 125.87246756214329,
        "Mean Anomaly(deg)": -58.04896088951231,
        "RAAN(deg)": 274.9930961218005,
        "Satellite Name": "Constellation 1 1228",
        "Satellite Number": 1228,
        "Semi-Major Axis(m)": 7083131.272910544,
        "Time(s)": 122
    },
    {
        "Altitude(m)": 714513.7796721356,
        "Argument of Periapsis(deg)": 0.0073736047681848904,
        "Eccentricity": 0.0,
        "Inclination(deg)": 45.0,
        "Latitude(deg)": -37.011174155037956,
        "Longitude(deg)": 125.93528031214584,
        "Mean Anomaly(deg)": -57.98825974926236,
        "RAAN(deg)": 274.99303953263495,
        "Satellite Name": "Constellation 1 1228",
        "Satellite Number": 1228,
        "Semi-Major Axis(m)": 7083131.272910544,
        "Time(s)": 123
    },
    {
        "Altitude(m)": 714502.0981832708,
        "Argument of Periapsis(deg)": 0.007433552774430298,
        "Eccentricity": 0.0,
        "Inclination(deg)": 45.0,
        "Latitude(deg)": -36.98272718802968,
        "Longitude(deg)": 125.99804337965176,
        "Mean Anomaly(deg)": -57.9275586090124,
        "RAAN(deg)": 274.99298294346937,
        "Satellite Name": "Constellation 1 1228",
        "Satellite Number": 1228,
        "Semi-Major Axis(m)": 7083131.272910544,
        "Time(s)": 124
    },
    {
        "Altitude(m)": 714490.4026412681,
        "Argument of Periapsis(deg)": 0.007493500780675703,
        "Eccentricity": 0.0,
        "Inclination(deg)": 45.0,
        "Latitude(deg)": -36.95424240796213,
        "Longitude(deg)": 126.06075678709088,
        "Mean Anomaly(deg)": -57.86685746876267,
        "RAAN(deg)": 274.99292635430385,
        "Satellite Name": "Constellation 1 1228",
        "Satellite Number": 1228,
        "Semi-Major Axis(m)": 7083131.272910544,
        "Time(s)": 125
    },
    {
        "Altitude(m)": 714478.6930883813,
        "Argument of Periapsis(deg)": 0.007553448786921108,
        "Eccentricity": 0.0,
        "Inclination(deg)": 45.0,
        "Latitude(deg)": -36.925719880867874,
        "Longitude(deg)": 126.12342038908373,
        "Mean Anomaly(deg)": -57.80615632851266,
        "RAAN(deg)": 274.9928697651382,
        "Satellite Name": "Constellation 1 1228",
        "Satellite Number": 1228,
        "Semi-Major Axis(m)": 7083131.272910544,
        "Time(s)": 126
    },
    {
        "Altitude(m)": 714466.9695669212,
        "Argument of Periapsis(deg)": 0.007613396793166514,
        "Eccentricity": 0.0,
        "Inclination(deg)": 45.0,
        "Latitude(deg)": -36.89715967273355,
        "Longitude(deg)": 126.18603454482567,
        "Mean Anomaly(deg)": -57.745455188262824,
        "RAAN(deg)": 274.99281317597263,
        "Satellite Name": "Constellation 1 1228",
        "Satellite Number": 1228,
        "Semi-Major Axis(m)": 7083131.272910544,
        "Time(s)": 127
    },
    {
        "Altitude(m)": 714455.2321192331,
        "Argument of Periapsis(deg)": 0.007673344799411918,
        "Eccentricity": 0.0,
        "Inclination(deg)": 45.0,
        "Latitude(deg)": -36.86856184949787,
        "Longitude(deg)": 126.24859910950562,
        "Mean Anomaly(deg)": -57.68475404801296,
        "RAAN(deg)": 274.9927565868071,
        "Satellite Name": "Constellation 1 1228",
        "Satellite Number": 1228,
        "Semi-Major Axis(m)": 7083131.272910544,
        "Time(s)": 128
    },
    {
        "Altitude(m)": 714443.4807877205,
        "Argument of Periapsis(deg)": 0.007733292805657325,
        "Eccentricity": 0.0,
        "Inclination(deg)": 45.0,
        "Latitude(deg)": -36.83992647705229,
        "Longitude(deg)": 126.31111410669203,
        "Mean Anomaly(deg)": -57.624052907763,
        "RAAN(deg)": 274.9926999976415,
        "Satellite Name": "Constellation 1 1228",
        "Satellite Number": 1228,
        "Semi-Major Axis(m)": 7083131.272910544,
        "Time(s)": 129
    },
    {
        "Altitude(m)": 714431.715614823,
        "Argument of Periapsis(deg)": 0.00779324081190273,
        "Eccentricity": 0.0,
        "Inclination(deg)": 45.0,
        "Latitude(deg)": -36.811253621240596,
        "Longitude(deg)": 126.37357956023385,
        "Mean Anomaly(deg)": -57.563351767513055,
        "RAAN(deg)": 274.992643408476,
        "Satellite Name": "Constellation 1 1228",
        "Satellite Number": 1228,
        "Semi-Major Axis(m)": 7083131.272910544,
        "Time(s)": 130
    },
    {
        "Altitude(m)": 714419.9366430298,
        "Argument of Periapsis(deg)": 0.007853188818148135,
        "Eccentricity": 0.0,
        "Inclination(deg)": 45.0,
        "Latitude(deg)": -36.78254334785844,
        "Longitude(deg)": 126.43599549425976,
        "Mean Anomaly(deg)": -57.50265062726326,
        "RAAN(deg)": 274.99258681931036,
        "Satellite Name": "Constellation 1 1228",
        "Satellite Number": 1228,
        "Semi-Major Axis(m)": 7083131.272910544,
        "Time(s)": 131
    },
    {
        "Altitude(m)": 714408.1439148796,
        "Argument of Periapsis(deg)": 0.007913136824393542,
        "Eccentricity": 0.0,
        "Inclination(deg)": 45.0,
        "Latitude(deg)": -36.75379572265296,
        "Longitude(deg)": 126.49836193317724,
        "Mean Anomaly(deg)": -57.44194948701331,
        "RAAN(deg)": 274.9925302301448,
        "Satellite Name": "Constellation 1 1228",
        "Satellite Number": 1228,
        "Semi-Major Axis(m)": 7083131.272910544,
        "Time(s)": 132
    }
]